OBJECT_NAME,OBJECT_ID,EPOCH,MEAN_MOTION,ECCENTRICITY,INCLINATION,RA_OF_ASC_NODE,ARG_OF_PERICENTER,MEAN_ANOMALY,EPHEMERIS_TYPE,CLASSIFICATION_TYPE,NORAD_CAT_ID,ELEMENT_SET_NO,REV_AT_EPOCH,BSTAR,MEAN_MOTION_DOT,MEAN_MOTION_DDOT
STARLINK-31468,2024-036A,2026-06-19T19:38:19.773024,15.30205481,.0001534,53.1628,323.4714,102.7603,257.3569,0,U,58998,999,13097,.19457E-3,.5408E-4,0
STARLINK-31440,2024-036B,2026-06-19T19:41:20.451840,15.30236811,.0001055,53.1611,323.4779,85.7556,274.3566,0,U,58999,999,13015,.60837E-3,.17722E-3,0
STARLINK-31529,2024-036C,2026-06-19T20:06:25.625376,15.30210895,.0001007,53.1616,321.4637,95.4211,264.6905,0,U,59000,999,13091,.60021E-4,.142E-4,0
STARLINK-31431,2024-036E,2026-06-19T19:11:07.874016,15.30199859,.0001088,53.1617,324.0573,91.7691,268.3434,0,U,59002,999,13095,.5631E-4,.1309E-4,0
STARLINK-31435,2024-036G,2026-06-19T16:34:48.334944,15.30186303,.0001154,53.1623,324.0926,59.3410,300.7705,0,U,59004,999,13095,.67202E-5,-.16E-5,0
STARLINK-31484,2024-036H,2026-06-19T19:47:26.166624,15.30202268,.0001285,53.1624,323.5011,91.8246,268.2902,0,U,59005,999,13096,.30593E-4,.547E-5,0
STARLINK-31450,2024-036J,2026-06-19T16:49:58.728288,15.30198690,.0001328,53.1616,324.1572,67.4032,292.7109,0,U,59006,999,13094,-.16729E-4,-.855E-5,0
STARLINK-31456,2024-036K,2026-06-19T16:43:53.123232,15.30201563,.0001292,53.1620,324.1291,112.8601,247.2537,0,U,59007,999,13094,.56575E-4,.1317E-4,0
STARLINK-31460,2024-036L,2026-06-19T17:26:26.918880,15.30179104,.0001303,53.1623,324.3146,87.0375,273.0775,0,U,59008,999,13094,.6291E-4,.1503E-4,0
STARLINK-31488,2024-036M,2026-06-19T19:45:54.910080,15.30204716,.0001065,53.1624,323.4922,85.7594,274.3528,0,U,59009,999,13096,.27584E-4,.458E-5,0
STARLINK-31528,2024-036N,2026-06-19T19:30:53.773632,15.30185025,.0001233,53.1619,324.1466,80.0283,280.0857,0,U,59010,999,13095,-.13062E-4,-.746E-5,0
STARLINK-31491,2024-036P,2026-06-19T16:24:18.902304,15.30194844,.000126,53.1626,324.7563,95.1582,264.9562,0,U,59011,999,13093,-.79024E-5,-.593E-5,0
STARLINK-31465,2024-036Q,2026-06-19T19:24:49.038624,15.30191748,.0001125,53.1604,324.1127,94.1162,265.9967,0,U,59012,999,13095,.48518E-4,.1078E-4,0
STARLINK-31389,2024-036R,2026-06-19T19:29:22.593120,15.30190406,.0001633,53.1630,324.1290,94.3635,265.7552,0,U,59013,999,13096,.80988E-5,-.12E-5,0
STARLINK-31454,2024-036S,2026-06-19T19:20:14.873280,15.30203411,.0001347,53.1612,324.0933,73.4327,286.6822,0,U,59014,999,13095,.49115E-4,.1096E-4,0
STARLINK-31521,2024-036T,2026-06-19T19:18:44.335584,15.30193889,.0001574,53.1624,324.0847,83.9063,276.2117,0,U,59015,999,13095,-.81706E-6,-.384E-5,0
STARLINK-31526,2024-036U,2026-06-19T13:29:48.559776,15.31710688,.00013009,53.1610,299.0953,103.9874,256.1272,0,U,59016,999,13128,-.53800537E-4,-.2035E-4,0
STARLINK-31406,2024-036V,2026-06-18T16:19:52.849056,15.34401152,.00010118,53.1611,314.2595,84.5075,275.6043,0,U,59017,999,13099,.12969641E-4,.62E-6,0
STARLINK-31527,2024-036W,2026-06-19T17:31:00.520032,15.30199445,.0001311,53.1631,324.3357,85.0001,275.1149,0,U,59018,999,13094,-.12054E-4,-.716E-5,0
STARLINK-31436,2024-036X,2026-06-19T19:33:55.844352,15.30195220,.0001106,53.1612,324.1492,86.7376,273.3752,0,U,59019,999,13095,.11871E-4,-.8E-7,0
STARLINK-30996,2024-038A,2026-06-19T06:33:17.993088,15.27602077,.00018429,43.0024,173.3659,277.9522,82.1121,0,U,59023,999,13166,.62623217E-4,.1462E-4,0
STARLINK-31006,2024-038B,2026-06-19T13:56:26.824128,15.27578046,.0001147,43.0037,121.1835,290.1884,69.8844,0,U,59024,999,13092,.1493706E-5,-.221E-5,0
STARLINK-31178,2024-038C,2026-06-19T06:48:08.470368,15.27579265,.00015063,43.0016,173.4400,276.2162,83.8518,0,U,59025,999,13018,.76245865E-4,.1836E-4,0
STARLINK-30863,2024-038E,2026-06-19T12:02:01.598496,15.27602058,.00019859,43.0020,172.4848,273.0982,86.9642,0,U,59027,999,13021,.14533448E-3,.3742E-4,0
STARLINK-31206,2024-038F,2026-06-19T13:07:22.175616,15.27569297,.00018803,43.0065,106.7799,261.3694,98.6945,0,U,59028,999,13110,-.1166153E-4,-.583E-5,0
STARLINK-31224,2024-038G,2026-06-19T10:49:53.952096,15.27577608,.00012157,43.0021,172.1213,275.9672,84.1041,0,U,59029,999,13032,.6923372E-4,.1643E-4,0
STARLINK-31186,2024-038H,2026-06-19T06:53:41.552736,15.27577978,.00012434,43.0011,173.4661,266.9191,93.1518,0,U,59030,999,13029,.24937168E-4,.424E-5,0
STARLINK-31211,2024-038J,2026-06-19T10:42:29.952864,15.27575923,.00010686,43.0013,172.0819,274.9669,85.1061,0,U,59031,999,13021,.29991373E-4,.563E-5,0
STARLINK-30862,2024-038K,2026-06-19T00:51:54.681984,15.27577478,.00015807,43.0043,163.8288,281.9013,78.1662,0,U,59032,999,13027,.25481341E-4,.439E-5,0
STARLINK-31210,2024-038L,2026-06-19T06:37:44.353056,15.27578380,.00016285,43.0020,169.9375,268.7479,91.3186,0,U,59033,999,13039,.51439785E-4,.1153E-4,0
