STARLINK-31468          
1 58998U 24036A   26170.81828441  .00005408  00000+0  19457-3 0  9991
2 58998  53.1628 323.4714 0001534 102.7603 257.3569 15.30205481130978
STARLINK-31440          
1 58999U 24036B   26170.82037560  .00017722  00000+0  60837-3 0  9997
2 58999  53.1611 323.4779 0001055  85.7556 274.3566 15.30236811130154
STARLINK-31529          
1 59000U 24036C   26170.83779659  .00001420  00000+0  60021-4 0  9998
2 59000  53.1616 321.4637 0001007  95.4211 264.6905 15.30210895130914
STARLINK-31431          
1 59002U 24036E   26170.79939669  .00001309  00000+0  56310-4 0  9996
2 59002  53.1617 324.0573 0001088  91.7691 268.3434 15.30199859130953
STARLINK-31435          
1 59004U 24036G   26170.69083721 -.00000160  00000+0  67202-5 0  9994
2 59004  53.1623 324.0926 0001154  59.3410 300.7705 15.30186303130959
STARLINK-31484          
1 59005U 24036H   26170.82460841  .00000547  00000+0  30593-4 0  9992
2 59005  53.1624 323.5011 0001285  91.8246 268.2902 15.30202268130960
STARLINK-31450          
1 59006U 24036J   26170.70137417 -.00000855  00000+0 -16729-4 0  9999
2 59006  53.1616 324.1572 0001328  67.4032 292.7109 15.30198690130943
STARLINK-31456          
1 59007U 24036K   26170.69714263  .00001317  00000+0  56575-4 0  9993
2 59007  53.1620 324.1291 0001292 112.8601 247.2537 15.30201563130948
STARLINK-31460          
1 59008U 24036L   26170.72670045  .00001503  00000+0  62910-4 0  9994
2 59008  53.1623 324.3146 0001303  87.0375 273.0775 15.30179104130943
STARLINK-31488          
1 59009U 24036M   26170.82355220  .00000458  00000+0  27584-4 0  9997
2 59009  53.1624 323.4922 0001065  85.7594 274.3528 15.30204716130960
STARLINK-31528          
1 59010U 24036N   26170.81312238 -.00000746  00000+0 -13062-4 0  9998
2 59010  53.1619 324.1466 0001233  80.0283 280.0857 15.30185025130956
STARLINK-31491          
1 59011U 24036P   26170.68355211 -.00000593  00000+0 -79024-5 0  9993
2 59011  53.1626 324.7563 0001260  95.1582 264.9562 15.30194844130939
STARLINK-31465          
1 59012U 24036Q   26170.80890091  .00001078  00000+0  48518-4 0  9998
2 59012  53.1604 324.1127 0001125  94.1162 265.9967 15.30191748130951
STARLINK-31389          
1 59013U 24036R   26170.81206705 -.00000120  00000+0  80988-5 0  9999
2 59013  53.1630 324.1290 0001633  94.3635 265.7552 15.30190406130962
STARLINK-31454          
1 59014U 24036S   26170.80572770  .00001096  00000+0  49115-4 0  9995
2 59014  53.1612 324.0933 0001347  73.4327 286.6822 15.30203411130956
STARLINK-31521          
1 59015U 24036T   26170.80467981 -.00000384  00000+0 -81706-6 0  9998
2 59015  53.1624 324.0847 0001574  83.9063 276.2117 15.30193889130958
STARLINK-31526          
1 59016U 24036U   26170.56236759 -.00002035  00000+0 -53801-4 0  9997
2 59016  53.1610 299.0953 0001300 103.9874 256.1272 15.31710688131282
STARLINK-31406          
1 59017U 24036V   26169.68047279  .00000062  00000+0  12970-4 0  9994
2 59017  53.1611 314.2595 0001011  84.5075 275.6043 15.34401152130997
STARLINK-31527          
1 59018U 24036W   26170.72986713 -.00000716  00000+0 -12054-4 0  9998
2 59018  53.1631 324.3357 0001311  85.0001 275.1149 15.30199445130948
STARLINK-31436          
1 59019U 24036X   26170.81522968 -.00000008  00000+0  11871-4 0  9996
2 59019  53.1612 324.1492 0001106  86.7376 273.3752 15.30195220130959
STARLINK-30996          
1 59023U 24038A   26170.27312492  .00001462  00000+0  62623-4 0  9997
2 59023  43.0024 173.3659 0001842 277.9522  82.1121 15.27602077131666
STARLINK-31006          
1 59024U 24038B   26170.58086602 -.00000221  00000+0  14937-5 0  9992
2 59024  43.0037 121.1835 0001147 290.1884  69.8844 15.27578046130924
STARLINK-31178          
1 59025U 24038C   26170.28343137  .00001836  00000+0  76246-4 0  9991
2 59025  43.0016 173.4400 0001506 276.2162  83.8518 15.27579265130189
STARLINK-30863          
1 59027U 24038E   26170.50140739  .00003742  00000+0  14533-3 0  9999
2 59027  43.0020 172.4848 0001985 273.0982  86.9642 15.27602058130210
STARLINK-31206          
1 59028U 24038F   26170.54678444 -.00000583  00000+0 -11662-4 0  9996
2 59028  43.0065 106.7799 0001880 261.3694  98.6945 15.27569297131101
STARLINK-31224          
1 59029U 24038G   26170.45131889  .00001643  00000+0  69234-4 0  9998
2 59029  43.0021 172.1213 0001215 275.9672  84.1041 15.27577608130326
STARLINK-31186          
1 59030U 24038H   26170.28728649  .00000424  00000+0  24937-4 0  9994
2 59030  43.0011 173.4661 0001243 266.9191  93.1518 15.27577978130290
STARLINK-31211          
1 59031U 24038J   26170.44618001  .00000563  00000+0  29991-4 0  9992
2 59031  43.0013 172.0819 0001068 274.9669  85.1061 15.27575923130211
STARLINK-30862          
1 59032U 24038K   26170.03604956  .00000439  00000+0  25481-4 0  9994
2 59032  43.0043 163.8288 0001580 281.9013  78.1662 15.27577478130275
STARLINK-31210          
1 59033U 24038L   26170.27620779  .00001153  00000+0  51440-4 0  9990
2 59033  43.0020 169.9375 0001628 268.7479  91.3186 15.27578380130391
